{
  "type": "FeatureCollection",
  "features": [
    {
      "type": "Feature",
      "properties": {
        "norad_id": 30744,
        "name": "FENGYUN 1C DEB",
        "group": "fengyun-1c-debris",
        "lat": 80.53765049134375,
        "lon": 54.41953520394572,
        "alt_km": 602.4811668406219,
        "timestamp": "2025-12-02T13:52:17.540655+00:00",
        "meta_object_name": "FENGYUN 1C DEB",
        "meta_object_id": "1999-025ATE",
        "meta_epoch": "2025-12-01T08:34:15.103200",
        "meta_mean_motion": 14.87898298,
        "meta_eccentricity": 0.00094744,
        "meta_inclination": 98.7311,
        "meta_ra_of_asc_node": 120.3093,
        "meta_arg_of_pericenter": 298.3203,
        "meta_mean_anomaly": 92.1394,
        "meta_ephemeris_type": 0,
        "meta_classification_type": "U",
        "meta_norad_cat_id": 30744,
        "meta_element_set_no": 999,
        "meta_rev_at_epoch": 97919,
        "meta_bstar": 0.0061698681,
        "meta_mean_motion_dot": 0.00056916,
        "meta_mean_motion_ddot": 0,
        "tle_line1": "1 30744U 99025ATE 25335.35711925  .00056916  00000+0  61699-2 0  9993",
        "tle_line2": "2 30744  98.7311 120.3093 0009474 298.3203  92.1394 14.87898298979195"
      },
      "geometry": {
        "type": "Point",
        "coordinates": [
          54.41953520394572,
          80.53765049134375
        ]
      }
    },
    {
      "type": "Feature",
      "properties": {
        "norad_id": 30746,
        "name": "FENGYUN 1C DEB",
        "group": "fengyun-1c-debris",
        "lat": 13.059813804817988,
        "lon": 154.68289206863517,
        "alt_km": 771.1155463365349,
        "timestamp": "2025-12-02T13:52:17.540665+00:00",
        "meta_object_name": "FENGYUN 1C DEB",
        "meta_object_id": "1999-025ATG",
        "meta_epoch": "2025-12-02T07:39:24.254208",
        "meta_mean_motion": 14.27477415,
        "meta_eccentricity": 0.00464732,
        "meta_inclination": 99.0576,
        "meta_ra_of_asc_node": 156.5353,
        "meta_arg_of_pericenter": 348.5032,
        "meta_mean_anomaly": 134.6314,
        "meta_ephemeris_type": 0,
        "meta_classification_type": "U",
        "meta_norad_cat_id": 30746,
        "meta_element_set_no": 999,
        "meta_rev_at_epoch": 97297,
        "meta_bstar": 0.00058515472,
        "meta_mean_motion_dot": 1.406e-05,
        "meta_mean_motion_ddot": 0,
        "tle_line1": "1 30746U 99025ATG 25336.31903072  .00001406  00000+0  58515-3 0  9996",
        "tle_line2": "2 30746  99.0576 156.5353 0046473 348.5032 134.6314 14.27477415972973"
      },
      "geometry": {
        "type": "Point",
        "coordinates": [
          154.68289206863517,
          13.059813804817988
        ]
      }
    },
    {
      "type": "Feature",
      "properties": {
        "norad_id": 30749,
        "name": "FENGYUN 1C DEB",
        "group": "fengyun-1c-debris",
        "lat": -57.33516575610312,
        "lon": 17.803098471711333,
        "alt_km": 871.0944250960274,
        "timestamp": "2025-12-02T13:52:17.540697+00:00",
        "meta_object_name": "FENGYUN 1C DEB",
        "meta_object_id": "1999-025ATK",
        "meta_epoch": "2025-12-02T07:17:14.934912",
        "meta_mean_motion": 13.9983022,
        "meta_eccentricity": 0.00547984,
        "meta_inclination": 98.8884,
        "meta_ra_of_asc_node": 3.4091,
        "meta_arg_of_pericenter": 261.7217,
        "meta_mean_anomaly": 97.7731,
        "meta_ephemeris_type": 0,
        "meta_classification_type": "U",
        "meta_norad_cat_id": 30749,
        "meta_element_set_no": 999,
        "meta_rev_at_epoch": 95820,
        "meta_bstar": 0.00027893982,
        "meta_mean_motion_dot": 3.71e-06,
        "meta_mean_motion_ddot": 0,
        "tle_line1": "1 30749U 99025ATK 25336.30364508  .00000371  00000+0  27894-3 0  9999",
        "tle_line2": "2 30749  98.8884   3.4091 0054798 261.7217  97.7731 13.99830220958201"
      },
      "geometry": {
        "type": "Point",
        "coordinates": [
          17.803098471711333,
          -57.33516575610312
        ]
      }
    },
    {
      "type": "Feature",
      "properties": {
        "norad_id": 30750,
        "name": "FENGYUN 1C DEB",
        "group": "fengyun-1c-debris",
        "lat": -59.760294422991485,
        "lon": -144.72861762253413,
        "alt_km": 815.0701030796272,
        "timestamp": "2025-12-02T13:52:17.540709+00:00",
        "meta_object_name": "FENGYUN 1C DEB",
        "meta_object_id": "1999-025ATL",
        "meta_epoch": "2025-12-02T04:36:13.669632",
        "meta_mean_motion": 14.28448145,
        "meta_eccentricity": 0.00415979,
        "meta_inclination": 98.9205,
        "meta_ra_of_asc_node": 50.5073,
        "meta_arg_of_pericenter": 130.0716,
        "meta_mean_anomaly": 285.756,
        "meta_ephemeris_type": 0,
        "meta_classification_type": "U",
        "meta_norad_cat_id": 30750,
        "meta_element_set_no": 999,
        "meta_rev_at_epoch": 96631,
        "meta_bstar": 0.0020872429,
        "meta_mean_motion_dot": 5.23e-05,
        "meta_mean_motion_ddot": 0,
        "tle_line1": "1 30750U 99025ATL 25336.19182488  .00005230  00000+0  20872-2 0  9990",
        "tle_line2": "2 30750  98.9205  50.5073 0041597 130.0716 285.7560 14.28448145966313"
      },
      "geometry": {
        "type": "Point",
        "coordinates": [
          -144.72861762253413,
          -59.760294422991485
        ]
      }
    },
    {
      "type": "Feature",
      "properties": {
        "norad_id": 30751,
        "name": "FENGYUN 1C DEB",
        "group": "fengyun-1c-debris",
        "lat": 75.45077545928454,
        "lon": -107.22064181775517,
        "alt_km": 799.391302671128,
        "timestamp": "2025-12-02T13:52:17.540719+00:00",
        "meta_object_name": "FENGYUN 1C DEB",
        "meta_object_id": "1999-025ATM",
        "meta_epoch": "2025-12-02T03:28:27.885216",
        "meta_mean_motion": 14.1510929,
        "meta_eccentricity": 0.00533064,
        "meta_inclination": 98.8564,
        "meta_ra_of_asc_node": 35.4258,
        "meta_arg_of_pericenter": 126.2399,
        "meta_mean_anomaly": 289.8362,
        "meta_ephemeris_type": 0,
        "meta_classification_type": "U",
        "meta_norad_cat_id": 30751,
        "meta_element_set_no": 999,
        "meta_rev_at_epoch": 96126,
        "meta_bstar": 0.001568628,
        "meta_mean_motion_dot": 3.041e-05,
        "meta_mean_motion_ddot": 0,
        "tle_line1": "1 30751U 99025ATM 25336.14476719  .00003041  00000+0  15686-2 0  9994",
        "tle_line2": "2 30751  98.8564  35.4258 0053306 126.2399 289.8362 14.15109290961268"
      },
      "geometry": {
        "type": "Point",
        "coordinates": [
          -107.22064181775517,
          75.45077545928454
        ]
      }
    },
    {
      "type": "Feature",
      "properties": {
        "norad_id": 30753,
        "name": "FENGYUN 1C DEB",
        "group": "fengyun-1c-debris",
        "lat": -4.581593187354359,
        "lon": 16.052448760030657,
        "alt_km": 818.6400891365565,
        "timestamp": "2025-12-02T13:52:17.540729+00:00",
        "meta_object_name": "FENGYUN 1C DEB",
        "meta_object_id": "1999-025ATP",
        "meta_epoch": "2025-12-02T01:59:36.926592",
        "meta_mean_motion": 14.1258899,
        "meta_eccentricity": 0.00558625,
        "meta_inclination": 98.8081,
        "meta_ra_of_asc_node": 14.854,
        "meta_arg_of_pericenter": 25.9373,
        "meta_mean_anomaly": 334.458,
        "meta_ephemeris_type": 0,
        "meta_classification_type": "U",
        "meta_norad_cat_id": 30753,
        "meta_element_set_no": 999,
        "meta_rev_at_epoch": 96201,
        "meta_bstar": 0.00089057222,
        "meta_mean_motion_dot": 1.629e-05,
        "meta_mean_motion_ddot": 0,
        "tle_line1": "1 30753U 99025ATP 25336.08306628  .00001629  00000+0  89057-3 0  9994",
        "tle_line2": "2 30753  98.8081  14.8540 0055862  25.9373 334.4580 14.12588990962013"
      },
      "geometry": {
        "type": "Point",
        "coordinates": [
          16.052448760030657,
          -4.581593187354359
        ]
      }
    },
    {
      "type": "Feature",
      "properties": {
        "norad_id": 30755,
        "name": "FENGYUN 1C DEB",
        "group": "fengyun-1c-debris",
        "lat": 19.242359477688566,
        "lon": -31.484392664904135,
        "alt_km": 721.0574225347282,
        "timestamp": "2025-12-02T13:52:17.540739+00:00",
        "meta_object_name": "FENGYUN 1C DEB",
        "meta_object_id": "1999-025ATR",
        "meta_epoch": "2025-12-01T23:04:40.455840",
        "meta_mean_motion": 14.4485462,
        "meta_eccentricity": 0.01513263,
        "meta_inclination": 98.2583,
        "meta_ra_of_asc_node": 330.8222,
        "meta_arg_of_pericenter": 302.1415,
        "meta_mean_anomaly": 111.3904,
        "meta_ephemeris_type": 0,
        "meta_classification_type": "U",
        "meta_norad_cat_id": 30755,
        "meta_element_set_no": 999,
        "meta_rev_at_epoch": 98289,
        "meta_bstar": 0.00091074396,
        "meta_mean_motion_dot": 3.597e-05,
        "meta_mean_motion_ddot": 0,
        "tle_line1": "1 30755U 99025ATR 25335.96157935  .00003597  00000+0  91074-3 0  9995",
        "tle_line2": "2 30755  98.2583 330.8222 0151326 302.1415 111.3904 14.44854620982894"
      },
      "geometry": {
        "type": "Point",
        "coordinates": [
          -31.484392664904135,
          19.242359477688566
        ]
      }
    }
  ]
}